{"payload_id":"Telkom-4","norad_id":[43587],"reused":false,"customers":["Telkom"],"nationality":"Indonesia","manufacturer":"SSL","payload_type":"Satellite","payload_mass_kg":5800,"payload_mass_lbs":12786.81,"orbit":"GTO","orbit_params":{"reference_system":"geocentric","regime":"geostationary","longitude":-108,"semi_major_axis_km":42165.511,"eccentricity":0.0001491,"periapsis_km":35781.089,"apoapsis_km":35793.663,"inclination_deg":0.018,"period_min":1436.136,"lifespan_years":15,"epoch":"2019-10-05T07:19:44.000Z","mean_motion":1.00269004,"raan":197.0596,"arg_of_pericenter":358.3541,"mean_anomaly":36.2037}}